NETSAT-4                
1 46504U 20068U   23030.62493545  .00007109  00000+0  50116-3 0  9993
2 46504  97.7453 335.4922 0010204 281.3455  78.6578 15.05262753128197
NETSAT-3                
1 46505U 20068V   23030.64740346  .00007826  00000+0  55216-3 0  9992
2 46505  97.7477 335.3904 0009523 292.0938  67.9241 15.05202980128206
NETSAT-1                
1 46506U 20068W   23030.60641271  .00005756  00000+0  40866-3 0  9991
2 46506  97.7503 335.2599 0007945 304.2780  55.7657 15.05098097128199
NETSAT-2                
1 46507U 20068X   23030.61625863  .00006777  00000+0  47941-3 0  9997
2 46507  97.7523 335.2631 0007105 312.6393  47.4164 15.05173235128144
SAI-1 NANOCONNECT-2     
1 47701U 21015C   23030.21054458  .00021812  00000+0  64191-3 0  9992
2 47701  97.4016 111.7496 0009838  11.5252 348.6214 15.35041513106891
WILDTRACKCUBE-SIMBA     
1 47941U 21022K   23031.29577803  .00007220  00000+0  45239-3 0  9998
2 47941  97.5122 290.9563 0022159  86.9786   8.8662 15.09449404102339
BEESAT-6                
1 47957U 21022AB  23030.51418810  .00011148  00000+0  63279-3 0  9999
2 47957  97.5108 290.9417 0021091  87.6405 272.7240 15.12915401102072
SMOG-1                  
1 47964U 21022AJ  23031.13297978  .00011869  00000+0  64440-3 0  9997
2 47964  97.5137 293.1628 0019162  74.5974 285.7373 15.14524275101283
MMSATS-1                
1 47976U 98067SJ  23031.09985019  .00097971  00000+0  50834-3 0  9998
2 47976  51.6334 249.0350 0003498 178.8125 257.1526 15.80216607105949
BCCSAT-1                
1 48041U 21022AK  23031.13847066  .00010757  00000+0  60719-3 0  9993
2 48041  97.5134 292.4498 0016142  74.3705 285.9306 15.13208285101219
BEESAT-5                
1 48083U 21022AM  23030.19167270  .00013267  00000+0  73858-3 0  9993
2 48083  97.5066 290.6911 0020896  88.2953 272.0671 15.13571183101165
BEESAT-7                
1 48084U 21022AN  23030.48782892  .00010990  00000+0  61951-3 0  9990
2 48084  97.5097 290.9621 0020919  87.1493 273.2132 15.13173180100792
BEESAT-8                
1 48085U 21022AP  23030.14779898  .00008633  00000+0  50290-3 0  9991
2 48085  97.5111 290.5112 0021057  89.0500 271.3143 15.12056983101292
LEDSAT                  
1 49069U 21073D   23031.13109155  .00005906  00000+0  35420-3 0  9991
2 49069  97.5008 104.5094 0024634 231.7612 128.1401 15.11078149 80184
HSU-SAT1                
1 53462U 98067UB  23030.91104401  .00148269  00000+0  89322-3 0  9994
2 53462  51.6322 275.7352 0003644 129.4394 230.6929 15.76708839 26789
FUTABA                  
1 53463U 98067UC  23031.06648888  .00354305  00000+0  11731-2 0  9992
2 53463  51.6265 271.4677 0005180 180.2195 179.8809 15.88883103 26850
TUMNANOSAT              
1 53464U 98067UD  23030.84694798  .09003762  12291-4  85053-3 0  9995
2 53464  51.6129 267.6453 0006100 243.7562 116.2836 16.37727030 26884
1998-067UL              
1 54534U 98067UL  23030.90279749  .00053092  00000+0  71125-3 0  9993
2 54534  51.6396 286.9816 0001160 308.7869  51.3019 15.57451983  9312
1998-067UM              
1 54535U 98067UM  23031.16567600  .00082442  00000+0  10485-2 0  9991
2 54535  51.6408 285.4597 0001997 227.4362 263.1104 15.58648436  9354
1998-067UN              
1 54536U 98067UN  23031.19410612  .00061628  00000+0  84288-3 0  9991
2 54536  51.6450 285.6455 0001799 344.3728 151.8782 15.56832261  9312
1998-067UP              
1 54537U 98067UP  23031.18144727  .00070392  00000+0  93338-3 0  9996
2 54537  51.6422 285.5523 0001022 274.8176 220.9312 15.57607547  9359
MARIO                   
1 55123U 98067UQ  23031.10645723  .00063260  00000+0  90464-3 0  9995
2 55123  51.6417 286.8434 0000471 196.0518 164.0459 15.55616343  5147
NUTSAT                  
1 55124U 98067UR  23030.89974730  .00091898  00000+0  12224-2 0  9999
2 55124  51.6403 287.7119 0002195 206.8981 153.1897 15.57405351  5100
LORIS                   
1 55125U 98067US  23031.11529968  .00049800  00000+0  74061-3 0  9999
2 55125  51.6408 286.9013 0000888   7.7099 352.3905 15.54650074  5154
ORCASAT                 
1 55126U 98067UT  23030.92719048  .00038759  00000+0  58963-3 0  9992
2 55126  51.6410 287.8955 0001374   7.2893 352.8117 15.54140287  5128
DANTESAT                
1 55127U 98067UU  23030.95682922  .01049705  51259-3  26469-2 0  9991
2 55127  51.6246 283.5553 0015360 212.5813 147.4248 15.94834687  5149
TJREVERB                
1 55128U 98067UV  23031.12165675  .00047702  00000+0  71942-3 0  9998
2 55128  51.6406 286.9441 0002215 326.6068  33.4783 15.54283259  5142
SPORT                   
1 55129U 98067UW  23030.94540564  .00024621  00000+0  40024-3 0  9994
2 55129  51.6414 288.0147 0001532 319.4490  40.6386 15.52542539  5111
PETITSAT                
1 55130U 98067UX  23030.92632820  .00082523  00000+0  11799-2 0  9992
2 55130  51.6407 287.8895 0002867 237.7796 122.2917 15.55504050  5065
1998-067UY              
1 55181U 98067UY  23031.12863119  .00059655  00000+0  89186-3 0  9994
2 55181  51.6398 286.9890 0004326 253.0812 106.9704 15.54420300  3859
HSKSAT                  
1 55182U 98067UZ  23031.00515571  .00038681  00000+0  60294-3 0  9993
2 55182  51.6403 287.6640 0003565 248.9217 111.1393 15.53465426  3842
1998-067VA              
1 55183U 98067VA  23030.10736735  .00039702  00000+0  62820-3 0  9993
2 55183  51.6419 292.1687 0003779 353.3213   6.7726 15.53037708  3708
BEIJING 1               
1 28890U 05043A   23031.18144768  .00000489  00000+0  10774-3 0  9999
2 28890  98.1390 154.7652 0015351 176.7632 183.3659 14.61614646920405
HJ-1A                   
1 33320U 08041A   23031.17224035  .00000864  00000+0  12580-3 0  9993
2 33320  97.6572  58.2960 0020120 207.7139 152.3000 14.78102149776023
HJ-1B                   
1 33321U 08041B   23031.11890663  .00001865  00000+0  26148-3 0  9991
2 33321  97.6720  62.2695 0032712 228.1636 131.6766 14.78261208776018
YAOGAN 4                
1 33446U 08061A   23031.05993665  .00001059  00000+0  15439-3 0  9996
2 33446  97.8402 329.5608 0017452 115.0236 245.2789 14.77730065763207
DEIMOS-1                
1 35681U 09041A   23031.09435498  .00000840  00000+0  14022-3 0  9991
2 35681  97.6910 235.2112 0001160 149.8710 210.2545 14.72276151725268
UK-DMC 2                
1 35683U 09041C   23031.00862545  .00001302  00000+0  21609-3 0  9994
2 35683  97.7124 197.0557 0000981  79.6005 280.5295 14.71744273724976
RISAT 1                 
1 38248U 12017A   23031.27948071  .00004493  00000+0  25227-3 0  9993
2 38248  97.5483  45.3117 0003927 166.1853 193.9486 15.13830402593289
DMC3-FM1                
1 40715U 15032A   23031.09992189  .00001043  00000+0  13658-3 0  9997
2 40715  97.8195 278.0800 0006854 127.3151 232.8669 14.82411641407016
DMC3-FM2                
1 40716U 15032B   23031.12293338  .00001039  00000+0  13605-3 0  9999
2 40716  97.8243 278.8648 0008662 131.6135 228.5823 14.82425888407021
DMC3-FM3                
1 40717U 15032C   23031.14404293  .00001046  00000+0  13702-3 0  9992
2 40717  97.8279 279.8986 0010317 130.5553 229.6548 14.82402090407025
NOAA 15                 
1 25338U 98030A   23031.07973567  .00000172  00000+0  89806-4 0  9998
2 25338  98.6226  62.3768 0010237 359.8949   0.2227 14.26232961285710
DMSP 5D-3 F15 (USA 147) 
1 25991U 99067A   23030.91929583  .00000222  00000+0  13461-3 0  9994
2 25991  99.0674  31.5602 0009112 264.0351 210.4214 14.16640050195976
DMSP 5D-3 F16 (USA 172) 
1 28054U 03048A   23031.15433005  .00000133  00000+0  94140-4 0  9992
2 28054  99.0058  28.3354 0007919  40.2824  93.5724 14.13737666995190
NOAA 18                 
1 28654U 05018A   23031.17988100  .00000172  00000+0  11655-3 0  9992
2 28654  98.9250 106.1679 0014844  50.8239 309.4249 14.12851181912227
METEOSAT-9 (MSG-2)      
1 28912U 05049B   23030.71346376  .00000124  00000+0  00000+0 0  9990
2 28912   6.5339  64.7798 0001446 200.8751 166.6454  1.00278277 62676
EWS-G1 (GOES 13)        
1 29155U 06018A   23030.85998499  .00000041  00000+0  00000+0 0  9999
2 29155   1.1673  92.6956 0004660 169.3011 238.6642  1.00267783 31016
DMSP 5D-3 F17 (USA 191) 
1 29522U 06050A   23031.26111421  .00000165  00000+0  10930-3 0  9995
2 29522  98.7602  46.9584 0009372 338.2275  21.8498 14.14172786838104
FENGYUN 3A              
1 32958U 08026A   23031.12077331  .00000152  00000+0  93080-4 0  9997
2 32958  98.5365 349.8277 0009861  85.3300 274.9003 14.18793155760617
FENGYUN 2E              
1 33463U 08066A   23030.57809662 -.00000200  00000+0  00000+0 0  9991
2 33463   6.4100  63.9314 0001936 268.7653  91.1546  1.00262394 51711
NOAA 19                 
1 33591U 09005A   23031.20740155  .00000168  00000+0  11569-3 0  9997
2 33591  99.1212  74.8196 0012978 267.8969  92.0716 14.12677693720602
GOES 14                 
1 35491U 09033A   23030.52970076 -.00000088  00000+0  00000+0 0  9996
2 35491   0.0615 212.4967 0016677  17.0627 346.0388  1.00268711 49749
METEOR-M 1              
1 35865U 09049A   23031.17388115  .00000152  00000+0  87449-4 0  9995
2 35865  98.5611 359.6711 0001270 301.8204  58.2851 14.22411967694059
DMSP 5D-3 F18 (USA 210) 
1 35951U 09057A   23031.18271713  .00000295  00000+0  17892-3 0  9998
2 35951  98.7516  10.2882 0011459 153.4170 206.7592 14.13641690685288
GOES 15                 
1 36411U 10008A   23030.67877212  .00000058  00000+0  00000+0 0  9993
2 36411   0.0179  66.8276 0002317 129.3926  49.4833  1.00270739 47296
COMS 1                  
1 36744U 10032A   23030.72985076 -.00000343  00000+0  00000+0 0  9991
2 36744   1.6452  91.1311 0001099 228.5620 200.8924  1.00271116 38728
FENGYUN 3B              
1 37214U 10059A   23031.01573432  .00000066  00000+0  58285-4 0  9999
2 37214  99.0907  46.0139 0023142  73.8643 286.5081 14.14290374633129
SUOMI NPP               
1 37849U 11061A   23031.08960271  .00000100  00000+0  68061-4 0  9997
2 37849  98.7566 331.7181 0001162  70.6914  51.4053 14.19542862583483
